{
  "norad_id": 66213,
  "name": "STARLINK-34204",
  "history": [
    {
      "epoch": "2026-03-28T13:29:01.677408",
      "apogee_km": 476.02941048333014,
      "perigee_km": 474.3859784255992,
      "latitude_deg": -52.913452657076455,
      "longitude_deg": 135.2351971201133,
      "semi_major_axis_km": 6853.344694454464,
      "eccentricity": 0.0001199,
      "inclination_deg": 53.1589,
      "raan_deg": 141.9202,
      "arg_perigee_deg": 102.6984,
      "mean_anomaly_deg": 257.4151,
      "mean_motion_rev_day": 15.3020247
    }
  ]
}